{
  "type": "FeatureCollection",
  "features": [
    {
      "type": "Feature",
      "properties": {
        "norad_id": 37959,
        "name": "COSMOS 2251 DEB",
        "group": "cosmos-2251-debris",
        "lat": 66.17570504218425,
        "lon": -145.54449414764045,
        "alt_km": 707.8256813150183,
        "timestamp": "2025-12-03T06:58:43.639889+00:00",
        "meta_object_name": "COSMOS 2251 DEB",
        "meta_object_id": "1993-036BPJ",
        "meta_epoch": "2025-12-01T13:23:10.736160",
        "meta_mean_motion": 14.58009519,
        "meta_eccentricity": 0.00585454,
        "meta_inclination": 74.0106,
        "meta_ra_of_asc_node": 78.2498,
        "meta_arg_of_pericenter": 223.2236,
        "meta_mean_anomaly": 152.6035,
        "meta_ephemeris_type": 0,
        "meta_classification_type": "U",
        "meta_norad_cat_id": 37959,
        "meta_element_set_no": 999,
        "meta_rev_at_epoch": 79964,
        "meta_bstar": 0.00093616583,
        "meta_mean_motion_dot": 4.376e-05,
        "meta_mean_motion_ddot": 0,
        "tle_line1": "1 37959U 93036BPJ 25335.55776315  .00004376  00000+0  93617-3 0  9999",
        "tle_line2": "2 37959  74.0106  78.2498 0058545 223.2236 152.6035 14.58009519799647"
      },
      "geometry": {
        "type": "Point",
        "coordinates": [
          -145.54449414764045,
          66.17570504218425
        ]
      }
    },
    {
      "type": "Feature",
      "properties": {
        "norad_id": 37960,
        "name": "COSMOS 2251 DEB",
        "group": "cosmos-2251-debris",
        "lat": -53.23005603417906,
        "lon": 45.938628730496895,
        "alt_km": 696.1884331474785,
        "timestamp": "2025-12-03T06:58:43.639899+00:00",
        "meta_object_name": "COSMOS 2251 DEB",
        "meta_object_id": "1993-036BPK",
        "meta_epoch": "2025-12-01T21:26:55.399200",
        "meta_mean_motion": 14.07801052,
        "meta_eccentricity": 0.02498308,
        "meta_inclination": 74.0589,
        "meta_ra_of_asc_node": 205.8992,
        "meta_arg_of_pericenter": 227.2395,
        "meta_mean_anomaly": 130.7486,
        "meta_ephemeris_type": 0,
        "meta_classification_type": "U",
        "meta_norad_cat_id": 37960,
        "meta_element_set_no": 999,
        "meta_rev_at_epoch": 77253,
        "meta_bstar": 0.0010377763,
        "meta_mean_motion_dot": 2.314e-05,
        "meta_mean_motion_ddot": 0,
        "tle_line1": "1 37960U 93036BPK 25335.89369675  .00002314  00000+0  10378-2 0  9997",
        "tle_line2": "2 37960  74.0589 205.8992 0249830 227.2395 130.7486 14.07801052772532"
      },
      "geometry": {
        "type": "Point",
        "coordinates": [
          45.938628730496895,
          -53.23005603417906
        ]
      }
    },
    {
      "type": "Feature",
      "properties": {
        "norad_id": 37961,
        "name": "COSMOS 2251 DEB",
        "group": "cosmos-2251-debris",
        "lat": 0.766540994984579,
        "lon": -25.147642206866816,
        "alt_km": 687.2041415621579,
        "timestamp": "2025-12-03T06:58:43.639909+00:00",
        "meta_object_name": "COSMOS 2251 DEB",
        "meta_object_id": "1993-036BPL",
        "meta_epoch": "2025-12-01T04:44:47.787648",
        "meta_mean_motion": 14.57792656,
        "meta_eccentricity": 0.0041244,
        "meta_inclination": 74.04,
        "meta_ra_of_asc_node": 159.049,
        "meta_arg_of_pericenter": 241.5465,
        "meta_mean_anomaly": 118.1542,
        "meta_ephemeris_type": 0,
        "meta_classification_type": "U",
        "meta_norad_cat_id": 37961,
        "meta_element_set_no": 999,
        "meta_rev_at_epoch": 79897,
        "meta_bstar": 0.001072,
        "meta_mean_motion_dot": 4.934e-05,
        "meta_mean_motion_ddot": 0,
        "tle_line1": "1 37961U 93036BPL 25335.19777532  .00004934  00000+0  10720-2 0  9997",
        "tle_line2": "2 37961  74.0400 159.0490 0041244 241.5465 118.1542 14.57792656798977"
      },
      "geometry": {
        "type": "Point",
        "coordinates": [
          -25.147642206866816,
          0.766540994984579
        ]
      }
    },
    {
      "type": "Feature",
      "properties": {
        "norad_id": 37966,
        "name": "COSMOS 2251 DEB",
        "group": "cosmos-2251-debris",
        "lat": -62.165006425727,
        "lon": 103.15255474771666,
        "alt_km": 542.9484663829335,
        "timestamp": "2025-12-03T06:58:43.639921+00:00",
        "meta_object_name": "COSMOS 2251 DEB",
        "meta_object_id": "1993-036BPR",
        "meta_epoch": "2025-12-02T10:49:19.602048",
        "meta_mean_motion": 15.10966833,
        "meta_eccentricity": 0.00084464,
        "meta_inclination": 73.9763,
        "meta_ra_of_asc_node": 251.9188,
        "meta_arg_of_pericenter": 125.6609,
        "meta_mean_anomaly": 234.5371,
        "meta_ephemeris_type": 0,
        "meta_classification_type": "U",
        "meta_norad_cat_id": 37966,
        "meta_element_set_no": 999,
        "meta_rev_at_epoch": 85187,
        "meta_bstar": 0.0036739745,
        "meta_mean_motion_dot": 0.00061866,
        "meta_mean_motion_ddot": 0,
        "tle_line1": "1 37966U 93036BPR 25336.45092132  .00061866  00000+0  36740-2 0  9995",
        "tle_line2": "2 37966  73.9763 251.9188 0008446 125.6609 234.5371 15.10966833851879"
      },
      "geometry": {
        "type": "Point",
        "coordinates": [
          103.15255474771666,
          -62.165006425727
        ]
      }
    },
    {
      "type": "Feature",
      "properties": {
        "norad_id": 37967,
        "name": "COSMOS 2251 DEB",
        "group": "cosmos-2251-debris",
        "lat": -1.2103118265411403,
        "lon": -24.76758514343166,
        "alt_km": 803.4283402477686,
        "timestamp": "2025-12-03T06:58:43.639931+00:00",
        "meta_object_name": "COSMOS 2251 DEB",
        "meta_object_id": "1993-036BPS",
        "meta_epoch": "2025-12-02T18:27:27.591840",
        "meta_mean_motion": 14.4035347,
        "meta_eccentricity": 0.0150739,
        "meta_inclination": 74.0137,
        "meta_ra_of_asc_node": 155.8513,
        "meta_arg_of_pericenter": 296.7858,
        "meta_mean_anomaly": 61.7944,
        "meta_ephemeris_type": 0,
        "meta_classification_type": "U",
        "meta_norad_cat_id": 37967,
        "meta_element_set_no": 999,
        "meta_rev_at_epoch": 64592,
        "meta_bstar": 0.0017095,
        "meta_mean_motion_dot": 6.178e-05,
        "meta_mean_motion_ddot": 0,
        "tle_line1": "1 37967U 93036BPS 25336.76906935  .00006178  00000+0  17095-2 0  9992",
        "tle_line2": "2 37967  74.0137 155.8513 0150739 296.7858  61.7944 14.40353470645922"
      },
      "geometry": {
        "type": "Point",
        "coordinates": [
          -24.76758514343166,
          -1.2103118265411403
        ]
      }
    },
    {
      "type": "Feature",
      "properties": {
        "norad_id": 37968,
        "name": "COSMOS 2251 DEB",
        "group": "cosmos-2251-debris",
        "lat": 72.78743560396862,
        "lon": 42.56246397356444,
        "alt_km": 521.040150940019,
        "timestamp": "2025-12-03T06:58:43.639941+00:00",
        "meta_object_name": "COSMOS 2251 DEB",
        "meta_object_id": "1993-036BPT",
        "meta_epoch": "2025-12-01T14:32:40.112448",
        "meta_mean_motion": 15.00143436,
        "meta_eccentricity": 0.00809552,
        "meta_inclination": 73.9999,
        "meta_ra_of_asc_node": 293.8509,
        "meta_arg_of_pericenter": 52.3614,
        "meta_mean_anomaly": 308.4882,
        "meta_ephemeris_type": 0,
        "meta_classification_type": "U",
        "meta_norad_cat_id": 37968,
        "meta_element_set_no": 999,
        "meta_rev_at_epoch": 60052,
        "meta_bstar": 0.00099024545,
        "meta_mean_motion_dot": 0.00013234,
        "meta_mean_motion_ddot": 0,
        "tle_line1": "1 37968U 93036BPT 25335.60601982  .00013234  00000+0  99025-3 0  9994",
        "tle_line2": "2 37968  73.9999 293.8509 0080955  52.3614 308.4882 15.00143436600528"
      },
      "geometry": {
        "type": "Point",
        "coordinates": [
          42.56246397356444,
          72.78743560396862
        ]
      }
    },
    {
      "type": "Feature",
      "properties": {
        "norad_id": 37971,
        "name": "COSMOS 2251 DEB",
        "group": "cosmos-2251-debris",
        "lat": -21.46146746469563,
        "lon": 53.01087668737279,
        "alt_km": 771.9658894331633,
        "timestamp": "2025-12-03T06:58:43.639951+00:00",
        "meta_object_name": "COSMOS 2251 DEB",
        "meta_object_id": "1993-036BPW",
        "meta_epoch": "2025-12-02T12:50:52.874880",
        "meta_mean_motion": 14.48350603,
        "meta_eccentricity": 0.00686219,
        "meta_inclination": 73.993,
        "meta_ra_of_asc_node": 60.9089,
        "meta_arg_of_pericenter": 201.4648,
        "meta_mean_anomaly": 158.3632,
        "meta_ephemeris_type": 0,
        "meta_classification_type": "U",
        "meta_norad_cat_id": 37971,
        "meta_element_set_no": 999,
        "meta_rev_at_epoch": 60530,
        "meta_bstar": 0.0025913383,
        "meta_mean_motion_dot": 9.973e-05,
        "meta_mean_motion_ddot": 0,
        "tle_line1": "1 37971U 93036BPW 25336.53533420  .00009973  00000+0  25913-2 0  9991",
        "tle_line2": "2 37971  73.9930  60.9089 0068621 201.4648 158.3632 14.48350603605306"
      },
      "geometry": {
        "type": "Point",
        "coordinates": [
          53.01087668737279,
          -21.46146746469563
        ]
      }
    }
  ]
}